GLOBALSTAR M075         
1 37192U 10054E   25185.28792122 -.00000082  00000+0  11930-3 0  9993
2 37192  51.9937 129.4683 0000409  38.2822 115.7099 12.62265902678007
GLOBALSTAR M073         
1 37193U 10054F   25185.05260359 -.00000097  00000+0  38287-4 0  9992
2 37193  52.0073  44.0168 0000896  63.7771 100.4975 12.62272348679969
GLOBALSTAR M083         
1 37739U 11033A   25185.68115997 -.00000081  00000+0  12672-3 0  9994
2 37739  51.9880 350.8126 0000661  99.0889 341.5892 12.62259700649424
GLOBALSTAR M088         
1 37740U 11033B   25185.67322167 -.00000096  00000+0  43396-4 0  9998
2 37740  52.0209 256.4221 0000532 148.7424  16.6540 12.62266415644891
GLOBALSTAR M091         
1 37741U 11033C   25185.52463753 -.00000093  00000+0  57903-4 0  9996
2 37741  51.9973 220.3513 0000312 212.0012 298.3618 12.62269149645372
GLOBALSTAR M085         
1 37742U 11033D   25185.43541815 -.00000087  00000+0  92639-4 0  9991
2 37742  51.9840 171.6435 0000200 302.3874 222.9166 12.62269623645875
GLOBALSTAR M081         
1 37743U 11033E   25185.29021676 -.00000087  00000+0  93003-4 0  9990
2 37743  51.9932 174.8858 0000287 338.6925 124.9815 12.62266932646004
GLOBALSTAR M089         
1 37744U 11033F   25185.25998539 -.00000095  00000+0  51008-4 0  9996
2 37744  51.9919 129.2002 0000656  52.3568  95.1362 12.62265146646842
